NORAD_CAT_ID,OBJECT_NAME,OBJECT_TYPE,EPOCH,MEAN_MOTION,ECCENTRICITY,INCLINATION,RA_OF_ASC_NODE,ARG_OF_PERICENTER,MEAN_ANOMALY,BSTAR,MEAN_MOTION_DOT,MEAN_MOTION_DDOT,TLE_LINE0,TLE_LINE1,TLE_LINE2,SEMIMAJOR_AXIS,PERIOD,APOGEE,PERIGEE,DECAYED
54009.0,STARLINK-5099,PAYLOAD,2024-08-09 04:17:41,15.08828017,0.0001692,53.2147,286.275,97.5758,262.5426,-0.00019731,-3.426e-05,0.0,0 STARLINK-5099,1 54009U 22125AX  24222.17895448 -.00003426  00000-0 -19731-3 0  9999,2 54009  53.2147 286.2750 0001692  97.5758 262.5426 15.08828017102337,6917.917,95.438,540.953,538.612,0.0
54009.0,STARLINK-5099,PAYLOAD,2024-08-09 10:39:14,15.08832167,0.0001665,53.2139,285.0853,96.8012,263.317,-0.0001441,-2.58e-05,0.0,0 STARLINK-5099,1 54009U 22125AX  24222.44391783 -.00002580  00000-0 -14410-3 0  9991,2 54009  53.2139 285.0853 0001665  96.8012 263.3170 15.08832167102329,6917.904,95.438,540.921,538.618,0.0
54009.0,STARLINK-5099,PAYLOAD,2024-08-10 04:08:28,15.08845212,0.00019,53.2147,281.813,112.2062,247.9132,0.00038499,5.845e-05,0.0,0 STARLINK-5099,1 54009U 22125AX  24223.17255726  .00005845  00000-0  38499-3 0  9996,2 54009  53.2147 281.8130 0001900 112.2062 247.9132 15.08845212102488,6917.864,95.437,541.044,538.415,0.0
54009.0,STARLINK-5099,PAYLOAD,2024-08-10 10:30:01,15.08848689,0.0001904,53.2155,280.6239,100.0572,260.0636,0.00066394,0.00010297,0.0,0 STARLINK-5099,1 54009U 22125AX  24223.43751863  .00010297  00000-0  66394-3 0  9990,2 54009  53.2155 280.6239 0001904 100.0572 260.0636 15.08848689102474,6917.854,95.437,541.036,538.402,0.0
54009.0,STARLINK-5099,PAYLOAD,2024-08-11 10:20:48,15.08838488,0.0001673,53.215,276.1554,117.4862,242.63,6.1045e-05,6.84e-06,0.0,0 STARLINK-5099,1 54009U 22125AX  24224.43112015  .00000684  00000-0  61045-4 0  9999,2 54009  53.2150 276.1554 0001673 117.4862 242.6300 15.08838488102678,6917.885,95.438,540.907,538.593,0.0
54009.0,STARLINK-5099,PAYLOAD,2024-08-11 13:31:35,15.08835755,0.0001605,53.2157,275.5653,116.5005,243.6151,3.216e-05,2.24e-06,0.0,0 STARLINK-5099,1 54009U 22125AX  24224.56359997  .00000224  00000-0  32160-4 0  9991,2 54009  53.2157 275.5653 0001605 116.5005 243.6151 15.08835755102648,6917.893,95.438,540.869,538.648,0.0
54009.0,STARLINK-5099,PAYLOAD,2024-08-12 03:50:02,15.08851653,0.0001475,53.2161,272.8908,110.0123,250.1028,0.00017004,2.42e-05,0.0,0 STARLINK-5099,1 54009U 22125AX  24225.15974997  .00002420  00000-0  17004-3 0  9999,2 54009  53.2161 272.8908 0001475 110.0123 250.1028 15.08851653102787,6917.845,95.437,540.73,538.689,0.0
54009.0,STARLINK-5099,PAYLOAD,2024-08-12 11:46:53,15.08907483,0.0001471,53.2166,271.4059,102.3225,257.7932,0.0005736,8.869e-05,0.0,0 STARLINK-5099,1 54009U 22125AX  24225.49089423  .00008869  00000-0  57360-3 0  9999,2 54009  53.2166 271.4059 0001471 102.3225 257.7932 15.08907483102833,6917.674,95.433,540.557,538.522,0.0
54009.0,STARLINK-5099,PAYLOAD,2024-08-12 19:43:53,15.08845805,0.0001452,53.2157,269.9193,100.6133,259.5023,-2.6257e-05,-7.06e-06,0.0,0 STARLINK-5099,1 54009U 22125AX  24225.82214184 -.00000706  00000-0 -26257-4 0  9996,2 54009  53.2157 269.9193 0001452 100.6133 259.5023 15.08845805102832,6917.863,95.437,540.732,538.723,0.0
54009.0,STARLINK-5099,PAYLOAD,2024-08-13 10:02:23,15.08797622,0.00011,53.2157,267.2414,94.7913,265.3205,-0.00049509,-8.149e-05,0.0,0 STARLINK-5099,1 54009U 22125AX  24226.41833326 -.00008149  00000-0 -49509-3 0  9990,2 54009  53.2157 267.2414 0001100  94.7913 265.3205 15.08797622102973,6918.01,95.44,540.636,539.114,0.0
54009.0,STARLINK-5099,PAYLOAD,2024-08-13 19:34:42,15.08804966,0.0001679,53.2157,265.4606,102.5036,257.6144,-0.00055745,-9.14e-05,0.0,0 STARLINK-5099,1 54009U 22125AX  24226.81577095 -.00009140  00000-0 -55745-3 0  9993,2 54009  53.2157 265.4606 0001679 102.5036 257.6144 15.08804966103035,6917.987,95.44,541.014,538.691,0.0
54009.0,STARLINK-5099,PAYLOAD,2024-08-14 06:42:24,15.08816723,0.0001188,53.2151,263.3779,106.4766,253.6357,-0.00040293,-6.691e-05,0.0,0 STARLINK-5099,1 54009U 22125AX  24227.27945353 -.00006691  00000-0 -40293-3 0  9990,2 54009  53.2151 263.3779 0001188 106.4766 253.6357 15.08816723103109,6917.952,95.439,540.638,538.995,0.0
54009.0,STARLINK-5099,PAYLOAD,2024-08-14 11:28:34,15.08815622,0.0001649,53.2151,262.4864,103.0098,257.1078,0.00027219,4.044e-05,0.0,0 STARLINK-5099,1 54009U 22125AX  24227.47818173  .00004044  00000-0  27219-3 0  9992,2 54009  53.2151 262.4864 0001649 103.0098 257.1078 15.08815622103080,6917.955,95.439,540.961,538.679,0.0
54009.0,STARLINK-5099,PAYLOAD,2024-08-15 09:43:59,15.08850065,0.0001644,53.214,258.3228,104.4123,255.7051,0.00099627,0.00015608,0.0,0 STARLINK-5099,1 54009U 22125AX  24228.40554824  .00015608  00000-0  99627-3 0  9996,2 54009  53.2140 258.3228 0001644 104.4123 255.7051 15.08850065103226,6917.85,95.437,540.852,538.577,0.0
54009.0,STARLINK-5099,PAYLOAD,2024-08-15 19:16:17,15.08860098,0.000163,53.2136,256.5381,103.0457,257.0717,0.00096715,0.00015146,0.0,0 STARLINK-5099,1 54009U 22125AX  24228.80298462  .00015146  00000-0  96715-3 0  9995,2 54009  53.2136 256.5381 0001630 103.0457 257.0717 15.08860098103334,6917.819,95.436,540.812,538.556,0.0
54009.0,STARLINK-5099,PAYLOAD,2024-08-16 07:59:22,15.08872088,0.0001723,53.214,254.1589,102.2376,257.8809,0.00090932,0.00014226,0.0,0 STARLINK-5099,1 54009U 22125AX  24229.33289643  .00014226  00000-0  90932-3 0  9998,2 54009  53.2140 254.1589 0001723 102.2376 257.8809 15.08872088103362,6917.782,95.436,540.839,538.455,0.0
54009.0,STARLINK-5099,PAYLOAD,2024-08-17 01:28:35,15.08871648,0.000178,53.2143,250.8916,91.8899,268.2296,0.00046407,7.112e-05,0.0,0 STARLINK-5099,1 54009U 22125AX  24230.06152509  .00007112  00000-0  46407-3 0  9994,2 54009  53.2143 250.8916 0001780  91.8899 268.2296 15.08871648103523,6917.784,95.436,540.88,538.417,0.0
54009.0,STARLINK-5099,PAYLOAD,2024-08-17 11:00:54,15.08857446,0.0001663,53.2147,249.102,103.8751,256.2426,6.9767e-05,8.23e-06,0.0,0 STARLINK-5099,1 54009U 22125AX  24230.45896364  .00000823  00000-0  69767-4 0  9998,2 54009  53.2147 249.1020 0001663 103.8751 256.2426 15.08857446103583,6917.827,95.436,540.842,538.542,0.0
54009.0,STARLINK-5099,PAYLOAD,2024-08-18 04:30:08,15.08849687,0.0001737,53.2148,245.8296,106.6044,253.5138,-7.8003e-05,-1.53e-05,0.0,0 STARLINK-5099,1 54009U 22125AX  24231.18760220 -.00001530  00000-0 -78003-4 0  9991,2 54009  53.2148 245.8296 0001737 106.6044 253.5138 15.08849687103690,6917.851,95.437,540.917,538.514,0.0
54009.0,STARLINK-5099,PAYLOAD,2024-08-18 06:05:31,15.08849008,0.0001743,53.2147,245.5323,106.3155,253.8029,-8.8072e-05,-1.69e-05,0.0,0 STARLINK-5099,1 54009U 22125AX  24231.25384187 -.00001690  00000-0 -88072-4 0  9997,2 54009  53.2147 245.5323 0001743 106.3155 253.8029 15.08849008103659,6917.853,95.437,540.924,538.512,0.0
54009.0,STARLINK-5099,PAYLOAD,2024-08-18 10:51:41,15.08848306,0.0001629,53.2157,244.6406,99.3694,260.7483,-9.2262e-05,-1.756e-05,0.0,0 STARLINK-5099,1 54009U 22125AX  24231.45256536 -.00001756  00000-0 -92262-4 0  9994,2 54009  53.2157 244.6406 0001629  99.3694 260.7483 15.08848306103688,6917.855,95.437,540.847,538.593,0.0
54009.0,STARLINK-5099,PAYLOAD,2024-08-19 04:20:56,15.08837379,0.0001624,53.2153,241.3696,103.5009,256.6164,-4.1783e-05,-9.53e-06,0.0,0 STARLINK-5099,1 54009U 22125AX  24232.18120697 -.00000953  00000-0 -41783-4 0  9993,2 54009  53.2153 241.3696 0001624 103.5009 256.6164 15.08837379103848,6917.888,95.438,540.877,538.63,0.0
54009.0,STARLINK-5099,PAYLOAD,2024-08-19 12:17:51,15.0883797,0.0001566,53.2155,239.8833,91.8109,268.3062,-4.0207e-05,-9.28e-06,0.0,0 STARLINK-5099,1 54009U 22125AX  24232.51240723 -.00000928  00000-0 -40207-4 0  9995,2 54009  53.2155 239.8833 0001566  91.8109 268.3062 15.08837970103844,6917.887,95.438,540.835,538.668,0.0
54009.0,STARLINK-5099,PAYLOAD,2024-08-20 07:22:29,15.08835628,0.0001542,53.2155,236.3159,93.083,267.0338,3.3225e-05,2.41e-06,0.0,0 STARLINK-5099,1 54009U 22125AX  24233.30728881  .00000241  00000-0  33225-4 0  9997,2 54009  53.2155 236.3159 0001542  93.0830 267.0338 15.08835628104016,6917.894,95.438,540.825,538.692,0.0
54009.0,STARLINK-5099,PAYLOAD,2024-08-21 05:37:53,15.08836337,0.0001548,53.2155,232.1531,94.2436,265.8733,9.008e-05,1.146e-05,0.0,0 STARLINK-5099,1 54009U 22125AX  24234.23464931  .00001146  00000-0  90080-4 0  9990,2 54009  53.2155 232.1531 0001548  94.2436 265.8733 15.08836337104108,6917.892,95.438,540.827,538.686,0.0
54009.0,STARLINK-5099,PAYLOAD,2024-08-21 23:07:08,15.08839086,0.0001509,53.2152,228.882,92.4289,267.6876,9.3062e-05,1.193e-05,0.0,0 STARLINK-5099,1 54009U 22125AX  24234.96328855  .00001193  00000-0  93062-4 0  9999,2 54009  53.2152 228.8820 0001509  92.4289 267.6876 15.08839086104215,6917.883,95.438,540.792,538.704,0.0
54009.0,STARLINK-5099,PAYLOAD,2024-08-22 03:53:17,15.08838245,0.0001469,53.215,227.9888,87.8204,272.2956,3.1888e-05,2.2e-06,0.0,0 STARLINK-5099,1 54009U 22125AX  24235.16201161  .00000220  00000-0  31888-4 0  9990,2 54009  53.2150 227.9888 0001469  87.8204 272.2956 15.08838245104292,6917.886,95.438,540.767,538.735,0.0
